LANDSAT 9               
1 49260U 21088A   23241.77631639  .00000459  00000+0  11195-3 0  9991
2 49260  98.2247 310.7705 0001462  97.9022 262.2343 14.57103189102116
